#aV2022 11 28  0  0  0.00000000     288 DD+AD WGS84 FIT  NGA
## 2238  86400.00000000   300.00000000 59911 0.0000000000000
+   31     1  2  3  4  5  6  7  8  9 10 11 12 13 14 15 16 17
+         18 19 20 21 22 23 24 25 26 27 29 30 31 32  0  0  0
+          0  0  0  0  0  0  0  0  0  0  0  0  0  0  0  0  0
+          0  0  0  0  0  0  0  0  0  0  0  0  0  0  0  0  0
+          0  0  0  0  0  0  0  0  0  0  0  0  0  0  0  0  0
++         2  2  2  2  2  2  2  2  2  2  2  2  2  2  2  2  2
++         2  2  2  2  2  2  2  2  2  2  2  2  2  2  0  0  0
++         0  0  0  0  0  0  0  0  0  0  0  0  0  0  0  0  0
++         0  0  0  0  0  0  0  0  0  0  0  0  0  0  0  0  0
++         0  0  0  0  0  0  0  0  0  0  0  0  0  0  0  0  0
%c cc cc ccc ccc cccc cccc cccc cccc ccccc ccccc ccccc ccccc
%c cc cc ccc ccc cccc cccc cccc cccc ccccc ccccc ccccc ccccc
%f  0.0000000  0.000000000  0.00000000000  0.000000000000000
%f  0.0000000  0.000000000  0.00000000000  0.000000000000000
%i    0    0    0    0      0      0      0      0         0
%i    0    0    0    0      0      0      0      0         0
/*      NGA, ST. LOUIS,MO.                                  
/*   EPHEMERIS COMPUTED FROM 2 DAYS OF DATA                 
/*   EPOCHA v8 SMOOTHER                                     
/*   G2139 IERS2010 SATIGS SATAPC                           
*  2022 11 28 10 55  0.00000000
P  1  -6051.097054  17620.974603 -19099.246679    245.281201                    
V  1 -21281.920898  10384.724386  16924.687861     -0.054406                    
P  2   2122.294884 -18114.079583  20012.007551   -635.734336                    
V  2  20348.320499 -12693.392539 -13900.396712      0.018489                    
P  3   3313.091525  17508.357544 -19854.835585   -374.537214                    
V  3 -21904.602725 -11799.775206 -14045.080545     -0.011805                    
P  4   -669.027056  26486.980175    637.150314    -78.445648                    
V  4  -2917.068503    687.138301 -31828.761968      0.068795                    
P  5  10767.264317 -11129.455749  21417.610910   -106.011519                    
V  5  24180.152552  13277.070020  -5099.708974     -0.014591                    
P  6  23454.360019  -4219.384895 -11741.080356    528.643276                    
V  6 -12271.951747   8680.392409 -27398.875981      0.085315                    
P  7  10108.659527  12175.239319  21787.746006    281.740843                    
V  7 -23215.737834  13135.022555   3011.859691     -0.049628                    
P  8  -6789.779710  23309.807310  10272.424947    -95.996623                    
V  8  -2995.370432 -13185.195042  28189.434528     -0.018093                    
P  9   8138.304454  22665.270753  11072.537160   -261.892362                    
V  9  -2454.845977  14241.663582 -27195.301435      0.058525                    
P 10 -23987.781161 -11170.407256  -3640.025621    -13.789365                    
V 10  -3088.924471  -4170.604613  31450.430844     -0.016012                    
P 11  23725.268278 -11894.880430     63.327550    -47.161710                    
V 11   1288.001028   2419.532344 -31858.684996     -0.066104                    
P 12  -1156.991886 -17624.091288 -20139.736834   -309.553473                    
V 12  21086.076409  13327.429699 -12947.688627     -0.045093                    
P 13  12904.724572 -17522.498272  14921.580249    432.570603                    
V 13   -751.643453  19409.812565  23352.712472      0.067175                    
P 14  23099.243343  13107.541760  -1850.491226    -76.617087                    
V 14    365.575455   3815.003841  31343.320471      0.056866                    
P 15   3963.241572 -24197.342512   9397.537931     -8.640133                    
V 15   5276.834534  12138.360821  27999.595113      0.032075                    
P 16 -15940.075779   5788.165605  20275.005869   -526.710352                    
V 16 -20908.074989 -15878.316043 -11288.330289      0.002740                    
P 17  12608.397662  11640.110241 -19808.685059    681.635241                    
V 17  -2909.039181  25975.852631  13199.018484      0.030577                    
P 18 -11666.954458 -10346.776466  21520.918484    -38.668030                    
V 18  23770.405471 -13359.326594   6324.370711     -0.142813                    
P 19  15105.053196   -574.060022 -22055.223404    243.345509                    
V 19  -2823.270685  27278.485437  -2925.943217      0.050781                    
P 20  21128.619553  -3828.213551  15504.772096    467.113855                    
V 20  17587.196603   9377.682902 -21901.032770     -0.024841                    
P 21 -13453.529834  18935.508049 -11535.159688    155.080218                    
V 21 -14859.696203   6383.823198  27195.612540     -0.008366                    
P 22 -15092.110491   4258.334923 -20990.576901    373.715550                    
V 22   1768.327155 -27624.226477  -6912.853066      0.077821                    
P 23 -19847.366687 -16336.609683   6961.863779     -0.649057                    
V 23   8792.951029   2278.026273  30253.255963      0.004122                    
P 24   8601.203146 -19798.113664 -15533.550010     39.768914                    
V 24  17519.988480  -8697.341683  21675.101958     -0.166221                    
P 25 -12389.082726 -18912.446775 -14456.731321    396.952029                    
V 25  16376.758806   7131.936931 -23582.758812      0.036398                    
P 26 -23308.525171  -1177.521366  12884.864708    237.060615                    
V 26 -13465.801754  -9817.383336 -24732.435853      0.010263                    
P 27 -12584.464172  14126.753420  18249.767657    167.245962                    
V 27  -1535.673033 -23760.120167  17520.625985     -0.095729                    
P 29  -4562.764376 -24217.993915   9756.507491   -570.308969                    
V 29   3122.163129 -12234.621336 -28860.857284     -0.026322                    
P 30  20122.449497   3411.293919  17217.729216   -536.194617                    
V 30 -18031.225025  12187.150943  18500.515206      0.004985                    
P 31 -24315.170912   4744.875802 -10340.449101   -201.597347                    
V 31  10167.364991  -8032.136334 -27571.404776     -0.011973                    
P 32 -14502.380777  -8033.286812 -20640.888249   -311.231697                    
V 32    783.988603 -26518.890785   9502.107723     -0.128729                    
EOF
